[{"OBJECT_NAME":"STARLINK-35111","OBJECT_ID":"2025-195F","EPOCH":"2026-03-09T22:12:57.193344","MEAN_MOTION":15.30223245,"ECCENTRICITY":7.331e-5,"INCLINATION":53.1584,"RA_OF_ASC_NODE":256.8121,"ARG_OF_PERICENTER":85.083,"MEAN_ANOMALY":275.0254,"EPHEMERIS_TYPE":0,"CLASSIFICATION_TYPE":"U","NORAD_CAT_ID":65463,"ELEMENT_SET_NO":999,"REV_AT_EPOCH":3003,"BSTAR":0.0009742998,"MEAN_MOTION_DOT":0.00028629,"MEAN_MOTION_DDOT":0},{"OBJECT_NAME":"COSMOS 2251 DEB","OBJECT_ID":"1993-036RB","EPOCH":"2026-03-09T01:08:04.800192","MEAN_MOTION":15.30699894,"ECCENTRICITY":0.00252965,"INCLINATION":73.7308,"RA_OF_ASC_NODE":76.2904,"ARG_OF_PERICENTER":263.9966,"MEAN_ANOMALY":95.8352,"EPHEMERIS_TYPE":0,"CLASSIFICATION_TYPE":"U","NORAD_CAT_ID":34410,"ELEMENT_SET_NO":999,"REV_AT_EPOCH":91089,"BSTAR":0.003018315,"MEAN_MOTION_DOT":0.00091531,"MEAN_MOTION_DDOT":0}]
